{
  "type": "FeatureCollection",
  "features": [
    {
      "type": "Feature",
      "properties": {
        "norad_id": 54741,
        "name": "GALAXY 35 (G-35)",
        "group": "intelsat",
        "lat": 0.03584339338370814,
        "lon": 37.109521805669246,
        "alt_km": 35793.794821982534,
        "timestamp": "2025-12-04T03:47:54.222009+00:00",
        "meta_object_name": "GALAXY 35 (G-35)",
        "meta_object_id": "2022-170A",
        "meta_epoch": "2025-12-03T13:18:45.763776",
        "meta_mean_motion": 1.00275104,
        "meta_eccentricity": 0.0002947,
        "meta_inclination": 0.0153,
        "meta_ra_of_asc_node": 341.0255,
        "meta_arg_of_pericenter": 282.5296,
        "meta_mean_anomaly": 275.6654,
        "meta_ephemeris_type": 0,
        "meta_classification_type": "U",
        "meta_norad_cat_id": 54741,
        "meta_element_set_no": 999,
        "meta_rev_at_epoch": 1093,
        "meta_bstar": 0,
        "meta_mean_motion_dot": 0,
        "meta_mean_motion_ddot": 0,
        "tle_line1": "1 54741U 22170A   25337.55469634  .00000000  00000+0  00000+0 0  9993",
        "tle_line2": "2 54741   0.0153 341.0255 0002947 282.5296 275.6654  1.00275104 10936"
      },
      "geometry": {
        "type": "Point",
        "coordinates": [
          37.109521805669246,
          0.03584339338370814
        ]
      }
    },
    {
      "type": "Feature",
      "properties": {
        "norad_id": 54742,
        "name": "GALAXY 36 (G-36)",
        "group": "intelsat",
        "lat": 0.02718162640093576,
        "lon": 41.193997399073886,
        "alt_km": 35788.75679326548,
        "timestamp": "2025-12-04T03:47:54.222021+00:00",
        "meta_object_name": "GALAXY 36 (G-36)",
        "meta_object_id": "2022-170B",
        "meta_epoch": "2025-12-03T13:20:00.644928",
        "meta_mean_motion": 1.00270357,
        "meta_eccentricity": 6.04e-05,
        "meta_inclination": 0.0156,
        "meta_ra_of_asc_node": 264.3766,
        "meta_arg_of_pericenter": 345.6709,
        "meta_mean_anomaly": 293.6018,
        "meta_ephemeris_type": 0,
        "meta_classification_type": "U",
        "meta_norad_cat_id": 54742,
        "meta_element_set_no": 999,
        "meta_rev_at_epoch": 1081,
        "meta_bstar": 0,
        "meta_mean_motion_dot": -1.67e-06,
        "meta_mean_motion_ddot": 0,
        "tle_line1": "1 54742U 22170B   25337.55556302 -.00000167  00000+0  00000+0 0  9998",
        "tle_line2": "2 54742   0.0156 264.3766 0000604 345.6709 293.6018  1.00270357 10818"
      },
      "geometry": {
        "type": "Point",
        "coordinates": [
          41.193997399073886,
          0.02718162640093576
        ]
      }
    },
    {
      "type": "Feature",
      "properties": {
        "norad_id": 57493,
        "name": "GALAXY 37 (G-37)",
        "group": "intelsat",
        "lat": 0.030981000192046172,
        "lon": 3.237543091859237,
        "alt_km": 35788.2807146349,
        "timestamp": "2025-12-04T03:47:54.222032+00:00",
        "meta_object_name": "GALAXY 37 (G-37)",
        "meta_object_id": "2023-112A",
        "meta_epoch": "2025-12-03T16:22:38.540064",
        "meta_mean_motion": 1.00273078,
        "meta_eccentricity": 0.0002479,
        "meta_inclination": 0.0143,
        "meta_ra_of_asc_node": 302.8949,
        "meta_arg_of_pericenter": 316.0904,
        "meta_mean_anomaly": 292.4607,
        "meta_ephemeris_type": 0,
        "meta_classification_type": "U",
        "meta_norad_cat_id": 57493,
        "meta_element_set_no": 999,
        "meta_rev_at_epoch": 858,
        "meta_bstar": 0,
        "meta_mean_motion_dot": 6.5e-07,
        "meta_mean_motion_ddot": 0,
        "tle_line1": "1 57493U 23112A   25337.68239051  .00000065  00000+0  00000+0 0  9990",
        "tle_line2": "2 57493   0.0143 302.8949 0002479 316.0904 292.4607  1.00273078  8587"
      },
      "geometry": {
        "type": "Point",
        "coordinates": [
          3.237543091859237,
          0.030981000192046172
        ]
      }
    }
  ]
}